#dP2022  5  5  0  0  0.00000000      96 __u+U ITR14 FIT  IAC
## 2208 345600.00000000   900.00000000 59704 0.0000000000000
+  126   C01C02C03C04C05C06C07C08C09C10C11C12C13C14C16C19C20
+        C21C22C23C24C25C26C27C28C29C30C32C33C34C35C36C37C38
+        C39C40C41C42C43C44C45C46C60E02E03E04E05E07E08E09E10
+        E11E12E13E14E15E18E19E21E24E25E26E27E30E31E33E34E36
+        G01G02G03G04G05G06G07G08G09G10G11G12G13G14G15G16G17
+        G18G19G20G21G22G23G24G25G26G27G28G29G30G31G32J02J03
+        J07R01R02R03R04R05R06R07R08R09R10R11R12R13R14R15R17
+        R18R19R20R21R22R23R24  0  0  0  0  0  0  0  0  0  0
++        16 14 15 15 15  9  9  9  9  8  9  9  9  9  9  7  7
++         7  7  7  7  7  7  7  7  7  7  7  7  7  7  8  7  8
++         8  8  7  8  7  8  8  7 15  5  4  4  4  5  5  4  5
++         5  4  4  4  4  5  5  4  4  4  4  4  5  4  5  4  4
++         4  4  4  4  3  4  4  4  4  4  4  4  4  4  4  4  4
++         4  4  4  4  4  4  4  4  4  4  5  4  3  4  4  8  8
++        15  7  6  6  6  6 13  6  6  6 13  6  5  7  6  6  6
++         6  7  7  6  8 13  6  0  0  0  0  0  0  0  0  0  0
%c M  cc GPS ccc cccc cccc cccc cccc ccccc ccccc ccccc ccccc
%c cc cc ccc ccc cccc cccc cccc cccc ccccc ccccc ccccc ccccc
%f  0.0000000  0.000000000  0.00000000000  0.000000000000000
%f  0.0000000  0.000000000  0.00000000000  0.000000000000000
%i    0    0    0    0      0      0      0      0         0
%i    0    0    0    0      0      0      0      0         0
/* INFORMATION & ANALYSIS CENTER (IAC)            RAPID DATA
/* S/V CLOCKS ARE ALIGNED TO GNSS TIME                      
/* G:C1WC2W R:C1PC2P E:C1XC5X C:C2IC6I J:C1CC2S             
/* PCV:IGS14_2196 OL/AL:FES2004  NONE     YN ORB:CoN CLK:CoN
*  2022 05 05 22  0  0.00000000
PC01 -34308.204043  24533.001069   -544.379957 999999.999999
PC02   4468.453158  41937.241085   -317.427613     56.616956
PC03 -14671.658378  39540.308474  -1129.268226   -557.318932
PC04 -39619.250959  14441.761602   -426.631825     38.185888
PC05  22010.471981  36024.593211   -114.865986    231.269666
PC06 -16467.669483  26446.962635  28341.671092    -73.004627
PC07  -9979.984726  40544.004602   6462.890046   -128.760761
PC08   -493.296012  25148.795113 -33800.226864    297.382256
PC09  -6370.782445  25923.628831  32887.840396   -760.367741
PC10  -4116.188255  42227.365381   -455.333619    133.615754
PC11  13744.142649 -16826.839102  17556.015023    334.319425
PC12  25848.999647 -10351.349760   1808.039941   -620.355927
PC13   7146.700843  29425.968828 -29082.910411    -41.169230
PC14   7779.790144 -26323.220629   4871.270199    468.790656
PC16 -19362.836251  25956.897675  27042.359056    128.086246
PC19  -1304.364454  27499.810052   4674.848105    872.495244
PC20 -12029.940792  22160.390675 -11974.669643   -903.383012
PC21  16222.994439  -3013.057356  22523.723027   -237.608657
PC22  10573.538456  17193.943827  19290.690151   -972.724892
PC23 -20373.044830 -18955.948248  -2084.514291   -930.266311
PC24  12957.604907 -10237.269911 -22502.981737   -960.689212
PC25  -6773.150579 -21002.382978 -17099.634349   -740.921307
PC26  23048.426181   4543.534618 -15047.997248    741.994682
PC27 -26668.506231   4425.787167   6865.597109    718.650977
PC28 -17179.563825  -8723.528304  20185.773467     63.358754
PC29  -2326.467408  17243.261396 -21826.789086    550.712908
PC30 -20798.087151  15718.046959  -9933.183881    498.049389
PC32 -16194.402581   3144.194516 -22488.888835   -962.723647
PC33   1225.202859 -27493.118346  -4541.187232   -965.833590
PC34  20144.823618 -16045.891832  10763.825242   -410.091096
PC35  16678.805549   8821.708746 -20584.624427    260.607770
PC36   5751.244647  21025.249601  17446.336535   -963.874017
PC37 -23258.231368  -6122.438755  14183.341747   -915.033544
PC38  -8813.009148  22398.486285 -34574.419324    230.071969
PC39 -24372.007171  26247.238899  22143.904812     34.974671
PC40 -15393.628613  38081.805972   9892.251202    266.630101
PC41 -10394.214120 -17574.055319 -18963.932934   -965.792476
PC42  12534.138320 -21354.502910  12894.792945   -963.244345
PC43   3163.651070 -17481.447194  21514.050457   -925.838869
PC44  26521.382346  -5165.401790  -7067.520767    650.179566
PC45  20519.389806  18809.454379   1827.899342    749.411289
PC46 -11621.125743  11308.954133  22714.315344   -308.931905
PC60   7298.521225  41517.080059  -1500.052637     -0.765388
PE02  16861.478146  20947.845547 -12359.091866    297.284999
PE03  13891.467354   9968.187825  24166.970417   -555.232563
PE04 -22646.160905   9190.578589 -16688.559296  -1021.584141
PE05  -3199.998704  23618.531316  17563.991149   -184.367043
PE07  18192.633846 -23326.959175   -825.075758   -665.568652
PE08  22574.262348  -9575.811045  16577.220410   -524.104172
PE09 -18037.378443  23460.477891    986.961133   -508.168407
PE10 -24579.418620   6258.200390 -15267.777018   -511.119551
PE11 -15938.210174  11927.511109 -21910.887462   3757.580758
PE12 -28852.936772   -171.862075  -6555.586269   4628.357836
PE13  16616.096982 -11561.067570  21601.442715    428.486018
PE14 -24152.313374  14014.506961   6138.477470  -1838.575833
PE15  28903.784509    224.054135   6411.689532    747.452372
PE18  23329.252875  -1874.146979 -16207.460789  -1483.296108
PE19 -11934.439521 -12105.491095 -24219.696750  -4175.064174
PE21  -6949.932726 -28296.225985  -5226.856096   -732.485121
PE24  -8486.315786  18732.286253  21266.171736   -598.908647
PE25   6761.781765  28289.536353   5482.316929   -572.888122
PE26  -6374.538915 -16649.384214  23627.694786  -1110.645079
PE27   7554.475459 -19760.406161 -20707.522720   -292.060238
PE30  17790.178678   1487.596553 -23620.310043   -486.752265
PE31 -17496.715592   -336.254646  23877.204872   -496.162764
PE33 -24080.644642 -11825.200341  12492.766504   -456.932497
PE34  24239.887769  11698.748266 -12327.360181   -515.579386
PE36   5360.970905  16479.239523 -24000.279563   -369.496384
PG01  19747.732528  13959.317414 -11677.727875    369.432779
PG02   1700.467341 -15352.582727  22257.074352   -653.278663
PG03  12783.554342  20607.772557  10859.778635   -233.521214
PG04  10806.202181  10735.418520  21769.112636   -169.940793
PG05  -5010.587329 -25733.198469   3552.923311    -80.789428
PG06  17521.696784  -7650.379161  18536.101864    292.272219
PG07  26066.963039   5422.806763  -2915.767263    321.719268
PG08   2551.448325  17192.690208 -20020.105706    -66.789652
PG09  18628.474625    244.654007  18875.639094   -338.918418
PG10 -13118.042711   7868.495914 -21532.597556   -403.619405
PG11   2519.086507 -15100.918739  21700.563231    -28.898378
PG12  -9297.840686 -23759.357332   7326.470782   -210.964681
PG13   7614.960679 -19549.364282 -16334.897975    306.364912
PG14  14214.860232  -6520.166969 -21463.718881   -106.821191
PG15  -5671.368472 -16862.758929 -20048.772612    -63.544718
PG16  -1253.954254  25119.003054   7499.488379   -498.260239
PG17  21961.348153 -13607.196314  -5835.385706    609.050274
PG18 -25814.472899  -5713.933369  -3098.066614    177.834774
PG19  20579.629109 -16587.816615    629.238853    153.483983
PG20    932.210548 -22932.935591  13563.478371    515.504055
PG21  11708.217060  15201.411825 -18004.284963    160.929103
PG22 -18355.248349  18708.886116   4060.634441    254.406492
PG23 -16035.853691  -4290.919765 -20766.098039    -19.909956
PG24 -16965.121175 -14633.051717 -14871.186663    246.101519
PG25 -15760.660171 -12384.422514  17272.811838    320.963073
PG26  -7225.380452  18844.269224  17022.889489    203.592858
PG27  -9184.898663  21205.069907 -12940.287319    197.730723
PG28  10213.555192 -15938.291275 -18213.939424    362.696227
PG29 -17960.699662  -1983.306392  19436.705935   -510.553458
PG30  23839.373554  -1794.160269 -11756.735856   -526.733940
PG31 -15869.448754   9281.311158  19203.048635   -176.386662
PG32 -20634.914404  15913.839887  -4435.293216   -120.508333
PJ02 -24593.988540  25118.304286  28159.891136     -3.267239
PJ03 -34537.481036  18937.638961 -10351.086181     -1.959839
PJ07 -25389.209404  33663.872320      8.897836      0.016381
PR01  11337.459367    784.352435  22842.884452      8.438638
PR02  13092.476629 -17974.439187  12600.102216    517.510001
PR03   6630.259274 -24238.130362  -4492.232267     56.142081
PR04  -3172.382546 -16810.179321 -18890.490207    140.096929
PR05 -11320.609777   -234.829772 -22838.154771     92.368659
PR06 -12351.871169  19044.042068 -11622.375182    -46.854571
PR07  -6173.650827  24142.670390   5386.316103     34.710226
PR08   3471.480234  16683.558133  19033.971862    -64.976389
PR09  -9622.278165   6116.158313  22830.849260     53.488816
PR10   3274.717049  17301.334278  18414.559721    -82.108481
PR11  15527.325060  20049.632629   2835.197133     39.695252
PR12  17961.440322  10208.515953 -14926.076367     18.295042
PR13  10373.588202  -4718.689981 -22836.915474    -21.881631
PR14  -4335.240063 -18105.294025 -17419.077894     77.280633
PR15 -15655.208001 -20042.841921  -1932.065975     96.351571
PR17   6905.547068 -11214.166361  21841.010088    523.503164
PR18 -11141.424062  -7984.841543  21507.379029    115.869286
PR19 -23008.547720  -1794.657185  10857.895189   -187.946773
PR20 -22571.778125   7170.909492  -9410.103097    -69.999998
PR21  -5428.188591  11063.843953 -22342.043765   -298.886854
PR22  12081.894760   7686.217264 -21155.697967   -181.310249
PR23  24904.036403  -1429.132578  -5361.986588    -39.636332
PR24  22010.089125  -8168.614528   9976.154753     92.342784
EOF
